OBJECT_NAME,OBJECT_ID,EPOCH,MEAN_MOTION,ECCENTRICITY,INCLINATION,RA_OF_ASC_NODE,ARG_OF_PERICENTER,MEAN_ANOMALY,EPHEMERIS_TYPE,CLASSIFICATION_TYPE,NORAD_CAT_ID,ELEMENT_SET_NO,REV_AT_EPOCH,BSTAR,MEAN_MOTION_DOT,MEAN_MOTION_DDOT
ONEWEB-0639,2023-029H,2026-07-13T08:10:04.456704,13.19725797,.0002557,87.9184,299.7680,121.8492,238.2890,0,U,55803,999,16235,-.5428E-4,-.9E-7,0
ONEWEB-0640,2023-029J,2026-07-13T04:57:22.789728,13.14502073,.0001425,87.8961,284.5558,118.9014,241.2259,0,U,55804,999,16283,-.88348E-3,-.315E-5,0
ONEWEB-0641,2023-029K,2026-07-13T08:03:15.333696,13.19726661,.0002112,87.9191,299.7599,104.9058,255.2309,0,U,55805,999,16236,-.55776E-4,-.9E-7,0
ONEWEB-0642,2023-029L,2026-07-13T07:56:27.136896,13.19727652,.0002848,87.9184,299.7712,115.2917,244.8511,0,U,55806,999,16235,-.60431E-3,-.229E-5,0
ONEWEB-0643,2023-029M,2026-07-12T19:05:57.229728,13.14502386,.00026434,87.8962,284.6250,109.8710,250.2705,0,U,55807,999,16275,.28382807E-3,.118E-5,0
ONEWEB-0644,2023-029N,2026-07-13T07:49:37.841952,13.19725909,.0002278,87.9180,299.7731,107.5884,252.5498,0,U,55808,999,16235,.13652E-3,.68E-6,0
ONEWEB-0645,2023-029P,2026-07-13T08:21:28.187424,13.19726049,.0001999,87.9185,299.7654,120.2277,239.9054,0,U,55809,999,16235,-.14743E-3,-.46E-6,0
ONEWEB-0646,2023-029Q,2026-07-13T08:46:28.718688,13.19726331,.0002205,87.9190,299.7615,105.8063,254.3313,0,U,55810,999,16234,-.13175E-3,-.4E-6,0
ONEWEB-0648,2023-029R,2026-07-12T16:30:40.040352,13.14503462,.0002252,87.8971,284.6227,124.7134,235.4208,0,U,55811,999,16274,.15905356E-3,.72E-6,0
ONEWEB-0649,2023-029S,2026-07-13T07:33:41.173632,13.19726777,.0001999,87.9183,299.7706,108.5218,251.6132,0,U,55812,999,16237,.67091E-4,.4E-6,0
ONEWEB-0650,2023-029T,2026-07-13T07:26:52.082592,13.19726470,.0002464,87.9184,299.7733,112.6560,247.4834,0,U,55813,999,16234,.9708E-4,.52E-6,0
ONEWEB-0652,2023-029U,2026-07-13T04:50:31.760736,13.14502556,.000201,87.8969,284.5272,95.2564,264.8795,0,U,55814,999,16278,-.6052E-3,-.212E-5,0
ONEWEB-0653,2023-029V,2026-07-12T19:19:38.441856,13.14501853,.00019356,87.8976,284.6035,100.0812,260.0537,0,U,55815,999,16276,-.32467953E-3,-.108E-5,0
ONEWEB-0654,2023-029W,2026-07-13T04:20:50.296416,13.14502156,.0001901,87.8977,284.5246,87.6586,272.4762,0,U,55816,999,16283,.39774E-3,.16E-5,0
ONEWEB-0656,2023-029X,2026-07-13T04:32:07.503072,13.20770172,.000189,87.9184,269.2504,89.9307,270.2043,0,U,55817,999,16458,-.18083E-3,-.61E-6,0
ONEWEB-0657,2023-029Y,2026-07-13T07:20:05.312256,13.19727259,.0002293,87.9183,299.7732,79.3516,280.7875,0,U,55818,999,16235,.10532E-3,.55E-6,0
ONEWEB-0658,2023-029Z,2026-07-13T05:24:03.754944,13.19726475,.0002345,87.9199,299.7658,108.8891,251.2496,0,U,55819,999,16235,-.49495E-4,-.7E-7,0
ONEWEB-0660,2023-029AA,2026-07-13T05:38:28.809888,13.14502293,.0001934,87.8983,284.5096,107.7029,252.4312,0,U,55820,999,16282,.98568E-3,.378E-5,0
ONEWEB-0661,2023-029AB,2026-07-12T19:31:04.118304,13.14502357,.00018076,87.8962,284.6346,106.3305,253.8024,0,U,55821,999,16275,-.469947E-3,-.161E-5,0
ONEWEB-0662,2023-029AC,2026-07-13T07:18:57.972096,13.14523810,.0001541,87.8961,284.5428,97.4834,262.6471,0,U,55822,999,16286,-.11291E-1,-.4172E-4,0
ONEWEB-0663,2023-029AD,2026-07-12T18:23:22.888896,13.20870909,.00021519,87.9188,269.4063,108.1469,251.9899,0,U,55823,999,16452,-.12135964E-3,-.36E-6,0
ONEWEB-0664,2023-029AE,2026-07-12T17:18:13.034880,13.20771850,.00016253,87.9178,269.3918,100.9214,259.2102,0,U,55824,999,16451,.79659173E-4,.45E-6,0
ONEWEB-0665,2023-029AF,2026-07-13T04:34:33.051648,13.14502145,.0001981,87.8963,284.5400,109.8543,250.2801,0,U,55825,999,16282,-.33446E-3,-.111E-5,0
ONEWEB-0666,2023-029AG,2026-07-13T04:03:01.957824,13.20773107,.00025,87.9172,269.2929,85.8853,274.2566,0,U,55826,999,16458,-.8414244E-5,.1E-6,0
ONEWEB-0667,2023-029AH,2026-07-12T17:01:13.218528,13.20773504,.00019432,87.9195,269.3459,102.2194,257.9157,0,U,55827,999,16451,.30480702E-3,.137E-5,0
ONEWEB-0669,2023-029AJ,2026-07-13T03:48:28.751040,13.20771891,.00017156,87.9182,269.2666,85.2483,274.8846,0,U,55828,999,16457,-.41384305E-3,-.155E-5,0
ONEWEB-0670,2023-029AK,2026-07-13T07:41:48.402240,13.14501269,.0001676,87.8976,284.5290,99.7329,260.3990,0,U,55829,999,16286,.53232E-3,.21E-5,0
ONEWEB-0671,2023-029AL,2026-07-12T20:11:20.705568,13.19726372,.00019079,87.9186,299.8666,106.3785,253.7558,0,U,55830,999,16228,.26943719E-4,.24E-6,0
ONEWEB-0672,2023-029AM,2026-07-12T16:46:40.776384,13.20769857,.00020818,87.9206,269.3495,93.8233,266.3139,0,U,55831,999,16451,.41098656E-3,.18E-5,0
ONEWEB-0673,2023-029AN,2026-07-13T08:22:35.695200,13.19724738,.0001877,87.9191,299.7592,104.1214,256.0127,0,U,55832,999,16235,-.11919E-3,-.35E-6,0
