ONEWEB-0639             
1 55803U 23029H   26194.34032936 -.00000009  00000+0 -54280-4 0  9992
2 55803  87.9184 299.7680 0002557 121.8492 238.2890 13.19725797162357
ONEWEB-0640             
1 55804U 23029J   26194.20651377 -.00000315  00000+0 -88348-3 0  9995
2 55804  87.8961 284.5558 0001425 118.9014 241.2259 13.14502073162837
ONEWEB-0641             
1 55805U 23029K   26194.33559414 -.00000009  00000+0 -55776-4 0  9999
2 55805  87.9191 299.7599 0002112 104.9058 255.2309 13.19726661162369
ONEWEB-0642             
1 55806U 23029L   26194.33086964 -.00000229  00000+0 -60431-3 0  9992
2 55806  87.9184 299.7712 0002848 115.2917 244.8511 13.19727652162353
ONEWEB-0643             
1 55807U 23029M   26193.79580127  .00000118  00000+0  28383-3 0  9997
2 55807  87.8962 284.6250 0002643 109.8710 250.2705 13.14502386162750
ONEWEB-0644             
1 55808U 23029N   26194.32613243  .00000068  00000+0  13652-3 0  9991
2 55808  87.9180 299.7731 0002278 107.5884 252.5498 13.19725909162359
ONEWEB-0645             
1 55809U 23029P   26194.34824291 -.00000046  00000+0 -14743-3 0  9991
2 55809  87.9185 299.7654 0001999 120.2277 239.9054 13.19726049162359
ONEWEB-0646             
1 55810U 23029Q   26194.36561017 -.00000040  00000+0 -13175-3 0  9991
2 55810  87.9190 299.7615 0002205 105.8063 254.3313 13.19726331162349
ONEWEB-0648             
1 55811U 23029R   26193.68796343  .00000072  00000+0  15905-3 0  9994
2 55811  87.8971 284.6227 0002252 124.7134 235.4208 13.14503462162749
ONEWEB-0649             
1 55812U 23029S   26194.31505988  .00000040  00000+0  67091-4 0  9998
2 55812  87.9183 299.7706 0001999 108.5218 251.6132 13.19726777162371
ONEWEB-0650             
1 55813U 23029T   26194.31032503  .00000052  00000+0  97080-4 0  9991
2 55813  87.9184 299.7733 0002464 112.6560 247.4834 13.19726470162346
ONEWEB-0652             
1 55814U 23029U   26194.20175649 -.00000212  00000+0 -60520-3 0  9997
2 55814  87.8969 284.5272 0002010  95.2564 264.8795 13.14502556162783
ONEWEB-0653             
1 55815U 23029V   26193.80530604 -.00000108  00000+0 -32468-3 0  9993
2 55815  87.8976 284.6035 0001935 100.0812 260.0537 13.14501853162765
ONEWEB-0654             
1 55816U 23029W   26194.18113769  .00000160  00000+0  39774-3 0  9998
2 55816  87.8977 284.5246 0001901  87.6586 272.4762 13.14502156162833
ONEWEB-0656             
1 55817U 23029X   26194.18897573 -.00000061  00000+0 -18083-3 0  9993
2 55817  87.9184 269.2504 0001890  89.9307 270.2043 13.20770172164589
ONEWEB-0657             
1 55818U 23029Y   26194.30561704  .00000055  00000+0  10532-3 0  9994
2 55818  87.9183 299.7732 0002293  79.3516 280.7875 13.19727259162351
ONEWEB-0658             
1 55819U 23029Z   26194.22504346 -.00000007  00000+0 -49495-4 0  9995
2 55819  87.9199 299.7658 0002345 108.8891 251.2496 13.19726475162359
ONEWEB-0660             
1 55820U 23029AA  26194.23505567  .00000378  00000+0  98568-3 0  9997
2 55820  87.8983 284.5096 0001934 107.7029 252.4312 13.14502293162820
ONEWEB-0661             
1 55821U 23029AB  26193.81324211 -.00000161  00000+0 -46995-3 0  9995
2 55821  87.8962 284.6346 0001807 106.3305 253.8024 13.14502357162756
ONEWEB-0662             
1 55822U 23029AC  26194.30483764 -.00004172  00000+0 -11291-1 0  9995
2 55822  87.8961 284.5428 0001541  97.4834 262.6471 13.14523810162861
ONEWEB-0663             
1 55823U 23029AD  26193.76623714 -.00000036  00000+0 -12136-3 0  9992
2 55823  87.9188 269.4063 0002151 108.1469 251.9899 13.20870909164524
ONEWEB-0664             
1 55824U 23029AE  26193.72098420  .00000045  00000+0  79659-4 0  9991
2 55824  87.9178 269.3918 0001625 100.9214 259.2102 13.20771850164517
ONEWEB-0665             
1 55825U 23029AF  26194.19066032 -.00000111  00000+0 -33446-3 0  9997
2 55825  87.8963 284.5400 0001981 109.8543 250.2801 13.14502145162823
ONEWEB-0666             
1 55826U 23029AG  26194.16877266  .00000010  00000+0 -84142-5 0  9992
2 55826  87.9172 269.2929 0002500  85.8853 274.2566 13.20773107164582
ONEWEB-0667             
1 55827U 23029AH  26193.70918077  .00000137  00000+0  30481-3 0  9992
2 55827  87.9195 269.3459 0001943 102.2194 257.9157 13.20773504164517
ONEWEB-0669             
1 55828U 23029AJ  26194.15866610 -.00000155  00000+0 -41384-3 0  9994
2 55828  87.9182 269.2666 0001715  85.2483 274.8846 13.20771891164577
ONEWEB-0670             
1 55829U 23029AK  26194.32069910  .00000210  00000+0  53232-3 0  9997
2 55829  87.8976 284.5290 0001676  99.7329 260.3990 13.14501269162869
ONEWEB-0671             
1 55830U 23029AL  26193.84121187  .00000024  00000+0  26944-4 0  9994
2 55830  87.9186 299.8666 0001907 106.3785 253.7558 13.19726372162280
ONEWEB-0672             
1 55831U 23029AM  26193.69908306  .00000180  00000+0  41099-3 0  9994
2 55831  87.9206 269.3495 0002081  93.8233 266.3139 13.20769857164518
ONEWEB-0673             
1 55832U 23029AN  26194.34902425 -.00000035  00000+0 -11919-3 0  9993
2 55832  87.9191 299.7592 0001877 104.1214 256.0127 13.19724738162354
